FLOCK 4G-23             
1 62647U 25009AQ  26197.66245345  .00024840  00000+0  73606-3 0  9993
2 62647  97.3926 279.3550 0003362 169.9902 190.1409 15.34840030 83445
FLOCK 4G-34             
1 62650U 25009AT  26197.17274833  .00005374  00000+0  18891-3 0  9993
2 62650  97.3962 278.6178 0002447 160.4706 199.6628 15.29785524 83344
FLOCK 4G-21             
1 62651U 25009AU  26197.80793402  .00020900  00000+0  65821-3 0  9999
2 62651  97.3989 280.2611 0003448 185.5442 174.5763 15.32939732 83496
FLOCK 4G-31             
1 62652U 25009AV  26197.66070719  .00005800  00000+0  20485-3 0  9992
2 62652  97.3966 279.0750 0002068 155.7856 204.3482 15.29597773 83410
FLOCK 4G-4              
1 62659U 25009BC  26197.69601520  .00021347  00000+0  68750-3 0  9993
2 62659  97.3941 278.9272 0004901 186.4125 173.7055 15.32212136141023
FLOCK 4G-6              
1 62660U 25009BD  26197.19168509  .00004760  00000+0  16661-3 0  9999
2 62660  97.3940 278.4605 0002963 196.4838 163.6306 15.29986947140937
FLOCK 4G-2              
1 62661U 25009BE  26197.18505543  .00005458  00000+0  18860-3 0  9990
2 62661  97.4010 279.0971 0003840 197.3366 162.7744 15.30339167140968
FLOCK 4G-5              
1 62663U 25009BG  26197.17959572  .00004788  00000+0  16288-3 0  9993
2 62663  97.4025 279.4931 0003590 178.1556 181.9699 15.30915429 83370
FLOCK 4G-1              
1 62666U 25009BK  26197.17003576  .00005324  00000+0  18484-3 0  9997
2 62666  97.4020 279.0613 0004092 195.2233 164.8885 15.30198497 83343
FLOCK 4G-14             
1 62667U 25009BL  26197.65931645  .00006017  00000+0  21140-3 0  9991
2 62667  97.4023 279.3445 0004373 188.4337 171.6831 15.29753181 83403
FLOCK 4G-10             
1 62670U 25009BP  26197.67013190  .00005750  00000+0  20152-3 0  9998
2 62670  97.3921 278.6514 0003819 207.3556 152.7484 15.29855346141045
FLOCK 4G-36             
1 62675U 25009BU  26197.86091038  .00006298  00000+0  22058-3 0  9996
2 62675  97.4011 279.4668 0004535 193.6016 166.5103 15.29832653 83439
FLOCK 4G-15             
1 62678U 25009BX  26197.21369392  .00005860  00000+0  20493-3 0  9994
2 62678  97.4015 278.9652 0004679 193.3435 166.7682 15.29913956140988
FLOCK 4G-30             
1 62679U 25009BY  26197.67620562  .00022885  00000+0  69615-3 0  9999
2 62679  97.3916 278.9553 0004573 192.2474 167.8658 15.34022087141069
FLOCK 4G-18             
1 62680U 25009BZ  26197.49636917  .00019856  00000+0  63867-3 0  9999
2 62680  97.4009 279.1688 0006347 206.0379 154.0544 15.32260032141026
FLOCK 4G-17             
1 62681U 25009CA  26197.69774209  .00006142  00000+0  21342-3 0  9995
2 62681  97.3918 278.9169 0004236 207.5518 152.5499 15.30101920141066
