{"fetched_at":"2026-07-17T06:37:53.254Z","source":"https://celestrak.org/NORAD/elements/gp.php?GROUP=planet&FORMAT=JSON","constellation":"superdove","records":[{"OBJECT_NAME":"FLOCK 4G-23","OBJECT_ID":"2025-009AQ","EPOCH":"2026-07-16T15:53:55.978080","CLASSIFICATION_TYPE":"U","MEAN_MOTION":15.3484003,"ECCENTRICITY":0.0003362,"INCLINATION":97.3926,"RA_OF_ASC_NODE":279.355,"ARG_OF_PERICENTER":169.9902,"MEAN_ANOMALY":190.1409,"EPHEMERIS_TYPE":0,"NORAD_CAT_ID":62647,"ELEMENT_SET_NO":999,"REV_AT_EPOCH":8344,"BSTAR":0.00073606,"MEAN_MOTION_DOT":0.0002484,"MEAN_MOTION_DDOT":0},{"OBJECT_NAME":"FLOCK 4G-34","OBJECT_ID":"2025-009AT","EPOCH":"2026-07-16T04:08:45.455712","CLASSIFICATION_TYPE":"U","MEAN_MOTION":15.29785524,"ECCENTRICITY":0.00024476,"INCLINATION":97.3962,"RA_OF_ASC_NODE":278.6178,"ARG_OF_PERICENTER":160.4706,"MEAN_ANOMALY":199.6628,"EPHEMERIS_TYPE":0,"NORAD_CAT_ID":62650,"ELEMENT_SET_NO":999,"REV_AT_EPOCH":8334,"BSTAR":0.00018891369,"MEAN_MOTION_DOT":0.00005374,"MEAN_MOTION_DDOT":0},{"OBJECT_NAME":"FLOCK 4G-21","OBJECT_ID":"2025-009AU","EPOCH":"2026-07-16T19:23:25.499328","CLASSIFICATION_TYPE":"U","MEAN_MOTION":15.32939732,"ECCENTRICITY":0.0003448,"INCLINATION":97.3989,"RA_OF_ASC_NODE":280.2611,"ARG_OF_PERICENTER":185.5442,"MEAN_ANOMALY":174.5763,"EPHEMERIS_TYPE":0,"NORAD_CAT_ID":62651,"ELEMENT_SET_NO":999,"REV_AT_EPOCH":8349,"BSTAR":0.00065821,"MEAN_MOTION_DOT":0.000209,"MEAN_MOTION_DDOT":0},{"OBJECT_NAME":"FLOCK 4G-31","OBJECT_ID":"2025-009AV","EPOCH":"2026-07-16T15:51:25.101216","CLASSIFICATION_TYPE":"U","MEAN_MOTION":15.29597773,"ECCENTRICITY":0.0002068,"INCLINATION":97.3966,"RA_OF_ASC_NODE":279.075,"ARG_OF_PERICENTER":155.7856,"MEAN_ANOMALY":204.3482,"EPHEMERIS_TYPE":0,"NORAD_CAT_ID":62652,"ELEMENT_SET_NO":999,"REV_AT_EPOCH":8341,"BSTAR":0.00020485,"MEAN_MOTION_DOT":0.000058,"MEAN_MOTION_DDOT":0},{"OBJECT_NAME":"FLOCK 4G-4","OBJECT_ID":"2025-009BC","EPOCH":"2026-07-16T16:42:15.713280","CLASSIFICATION_TYPE":"U","MEAN_MOTION":15.32212136,"ECCENTRICITY":0.0004901,"INCLINATION":97.3941,"RA_OF_ASC_NODE":278.9272,"ARG_OF_PERICENTER":186.4125,"MEAN_ANOMALY":173.7055,"EPHEMERIS_TYPE":0,"NORAD_CAT_ID":62659,"ELEMENT_SET_NO":999,"REV_AT_EPOCH":14102,"BSTAR":0.0006875,"MEAN_MOTION_DOT":0.00021347,"MEAN_MOTION_DDOT":0},{"OBJECT_NAME":"FLOCK 4G-6","OBJECT_ID":"2025-009BD","EPOCH":"2026-07-16T04:36:01.591776","CLASSIFICATION_TYPE":"U","MEAN_MOTION":15.29986947,"ECCENTRICITY":0.0002963,"INCLINATION":97.394,"RA_OF_ASC_NODE":278.4605,"ARG_OF_PERICENTER":196.4838,"MEAN_ANOMALY":163.6306,"EPHEMERIS_TYPE":0,"NORAD_CAT_ID":62660,"ELEMENT_SET_NO":999,"REV_AT_EPOCH":14093,"BSTAR":0.00016661,"MEAN_MOTION_DOT":0.0000476,"MEAN_MOTION_DDOT":0},{"OBJECT_NAME":"FLOCK 4G-2","OBJECT_ID":"2025-009BE","EPOCH":"2026-07-16T04:26:28.789152","CLASSIFICATION_TYPE":"U","MEAN_MOTION":15.30339167,"ECCENTRICITY":0.000384,"INCLINATION":97.401,"RA_OF_ASC_NODE":279.0971,"ARG_OF_PERICENTER":197.3366,"MEAN_ANOMALY":162.7744,"EPHEMERIS_TYPE":0,"NORAD_CAT_ID":62661,"ELEMENT_SET_NO":999,"REV_AT_EPOCH":14096,"BSTAR":0.0001886,"MEAN_MOTION_DOT":0.00005458,"MEAN_MOTION_DDOT":0},{"OBJECT_NAME":"FLOCK 4G-5","OBJECT_ID":"2025-009BG","EPOCH":"2026-07-16T04:18:37.070208","CLASSIFICATION_TYPE":"U","MEAN_MOTION":15.30915429,"ECCENTRICITY":0.00035902,"INCLINATION":97.4025,"RA_OF_ASC_NODE":279.4931,"ARG_OF_PERICENTER":178.1556,"MEAN_ANOMALY":181.9699,"EPHEMERIS_TYPE":0,"NORAD_CAT_ID":62663,"ELEMENT_SET_NO":999,"REV_AT_EPOCH":8337,"BSTAR":0.00016288403,"MEAN_MOTION_DOT":0.00004788,"MEAN_MOTION_DDOT":0},{"OBJECT_NAME":"FLOCK 4G-1","OBJECT_ID":"2025-009BK","EPOCH":"2026-07-16T04:04:51.089664","CLASSIFICATION_TYPE":"U","MEAN_MOTION":15.30198497,"ECCENTRICITY":0.0004092,"INCLINATION":97.402,"RA_OF_ASC_NODE":279.0613,"ARG_OF_PERICENTER":195.2233,"MEAN_ANOMALY":164.8885,"EPHEMERIS_TYPE":0,"NORAD_CAT_ID":62666,"ELEMENT_SET_NO":999,"REV_AT_EPOCH":8334,"BSTAR":0.00018484,"MEAN_MOTION_DOT":0.00005324,"MEAN_MOTION_DDOT":0},{"OBJECT_NAME":"FLOCK 4G-14","OBJECT_ID":"2025-009BL","EPOCH":"2026-07-16T15:49:24.941280","CLASSIFICATION_TYPE":"U","MEAN_MOTION":15.29753181,"ECCENTRICITY":0.0004373,"INCLINATION":97.4023,"RA_OF_ASC_NODE":279.3445,"ARG_OF_PERICENTER":188.4337,"MEAN_ANOMALY":171.6831,"EPHEMERIS_TYPE":0,"NORAD_CAT_ID":62667,"ELEMENT_SET_NO":999,"REV_AT_EPOCH":8340,"BSTAR":0.0002114,"MEAN_MOTION_DOT":0.00006017,"MEAN_MOTION_DDOT":0},{"OBJECT_NAME":"FLOCK 4G-10","OBJECT_ID":"2025-009BP","EPOCH":"2026-07-16T16:04:59.396160","CLASSIFICATION_TYPE":"U","MEAN_MOTION":15.29855346,"ECCENTRICITY":0.0003819,"INCLINATION":97.3921,"RA_OF_ASC_NODE":278.6514,"ARG_OF_PERICENTER":207.3556,"MEAN_ANOMALY":152.7484,"EPHEMERIS_TYPE":0,"NORAD_CAT_ID":62670,"ELEMENT_SET_NO":999,"REV_AT_EPOCH":14104,"BSTAR":0.00020152,"MEAN_MOTION_DOT":0.0000575,"MEAN_MOTION_DDOT":0},{"OBJECT_NAME":"FLOCK 4G-36","OBJECT_ID":"2025-009BU","EPOCH":"2026-07-16T20:39:42.656832","CLASSIFICATION_TYPE":"U","MEAN_MOTION":15.29832653,"ECCENTRICITY":0.0004535,"INCLINATION":97.4011,"RA_OF_ASC_NODE":279.4668,"ARG_OF_PERICENTER":193.6016,"MEAN_ANOMALY":166.5103,"EPHEMERIS_TYPE":0,"NORAD_CAT_ID":62675,"ELEMENT_SET_NO":999,"REV_AT_EPOCH":8343,"BSTAR":0.00022058,"MEAN_MOTION_DOT":0.00006298,"MEAN_MOTION_DDOT":0},{"OBJECT_NAME":"FLOCK 4G-15","OBJECT_ID":"2025-009BX","EPOCH":"2026-07-16T05:07:43.154688","CLASSIFICATION_TYPE":"U","MEAN_MOTION":15.29913956,"ECCENTRICITY":0.0004679,"INCLINATION":97.4015,"RA_OF_ASC_NODE":278.9652,"ARG_OF_PERICENTER":193.3435,"MEAN_ANOMALY":166.7682,"EPHEMERIS_TYPE":0,"NORAD_CAT_ID":62678,"ELEMENT_SET_NO":999,"REV_AT_EPOCH":14098,"BSTAR":0.00020493,"MEAN_MOTION_DOT":0.0000586,"MEAN_MOTION_DDOT":0},{"OBJECT_NAME":"FLOCK 4G-30","OBJECT_ID":"2025-009BY","EPOCH":"2026-07-16T16:13:44.165568","CLASSIFICATION_TYPE":"U","MEAN_MOTION":15.34022087,"ECCENTRICITY":0.0004573,"INCLINATION":97.3916,"RA_OF_ASC_NODE":278.9553,"ARG_OF_PERICENTER":192.2474,"MEAN_ANOMALY":167.8658,"EPHEMERIS_TYPE":0,"NORAD_CAT_ID":62679,"ELEMENT_SET_NO":999,"REV_AT_EPOCH":14106,"BSTAR":0.00069615,"MEAN_MOTION_DOT":0.00022885,"MEAN_MOTION_DDOT":0},{"OBJECT_NAME":"FLOCK 4G-18","OBJECT_ID":"2025-009BZ","EPOCH":"2026-07-16T11:54:46.296288","CLASSIFICATION_TYPE":"U","MEAN_MOTION":15.32260032,"ECCENTRICITY":0.0006347,"INCLINATION":97.4009,"RA_OF_ASC_NODE":279.1688,"ARG_OF_PERICENTER":206.0379,"MEAN_ANOMALY":154.0544,"EPHEMERIS_TYPE":0,"NORAD_CAT_ID":62680,"ELEMENT_SET_NO":999,"REV_AT_EPOCH":14102,"BSTAR":0.00063867,"MEAN_MOTION_DOT":0.00019856,"MEAN_MOTION_DDOT":0},{"OBJECT_NAME":"FLOCK 4G-17","OBJECT_ID":"2025-009CA","EPOCH":"2026-07-16T16:44:44.916576","CLASSIFICATION_TYPE":"U","MEAN_MOTION":15.3010192,"ECCENTRICITY":0.0004236,"INCLINATION":97.3918,"RA_OF_ASC_NODE":278.9169,"ARG_OF_PERICENTER":207.5518,"MEAN_ANOMALY":152.5499,"EPHEMERIS_TYPE":0,"NORAD_CAT_ID":62681,"ELEMENT_SET_NO":999,"REV_AT_EPOCH":14106,"BSTAR":0.00021342,"MEAN_MOTION_DOT":0.00006142,"MEAN_MOTION_DDOT":0}]}
